CTC1_L_00227016-03
1 10062U 22320RE  26075.70032407  .00000000  00000+0  00000-0 0  9990
2 10062 100.0000 180.0000 0000000   0.0000   0.0000 12.77881384    11
CTC1_L_00227016-04
1 10063U 25649K   26075.70032407  .00000000  00000+0  00000-0 0  9998
2 10063 100.0000 180.0000 0000000   0.0000  90.0000 12.77881384    11
CTC1_L_00227017-01
1 10064U 24386GI  26075.70032407  .00000000  00000+0  00000-0 0  9996
2 10064 100.0000 192.0000 0000000   0.0000 192.0000 12.77881384    18
CTC1_L_00227017-02
1 10065U 26894IZ  26075.70032407  .00000000  00000+0  00000-0 0  9993
2 10065 100.0000 192.0000 0000000   0.0000 282.0000 12.77881384    19
CTC1_L_00227017-03
1 10066U 24020AV  26075.70032407  .00000000  00000+0  00000-0 0  9993
2 10066 100.0000 192.0000 0000000   0.0000  12.0000 12.77881384    11
CTC1_L_00227017-04
1 10067U 22575EX  26075.70032407  .00000000  00000+0  00000-0 0  9997
2 10067 100.0000 192.0000 0000000   0.0000 102.0000 12.77881384    12
CTC1_L_00227018-01
1 10068U 22554JF  26075.70032407  .00000000  00000+0  00000-0 0  9995
2 10068 100.0000 204.0000 0000000   0.0000 204.0000 12.77881384    10
CTC1_L_00227018-02
1 10069U 25779IX  26075.70032407  .00000000  00000+0  00000-0 0  9998
2 10069 100.0000 204.0000 0000000   0.0000 294.0000 12.77881384    10
CTC1_L_00227018-03
1 10070U 26390MJ  26075.70032407  .00000000  00000+0  00000-0 0  9990
2 10070 100.0000 204.0000 0000000   0.0000  24.0000 12.77881384    13
CTC1_L_00227018-04
1 10071U 24485TO  26075.70032407  .00000000  00000+0  00000-0 0  9994
2 10071 100.0000 204.0000 0000000   0.0000 114.0000 12.77881384    14
CTC1_L_00227019-01
1 10072U 24991MH  26075.70032407  .00000000  00000+0  00000-0 0  9997
2 10072 100.0000 216.0000 0000000   0.0000 216.0000 12.77881384    11
CTC1_L_00227019-02
1 10073U 24253IH  26075.70032407  .00000000  00000+0  00000-0 0  9999
2 10073 100.0000 216.0000 0000000   0.0000 306.0000 12.77881384    12
CTC1_L_00227019-03
1 10074U 26208OW  26075.70032407  .00000000  00000+0  00000-0 0  9992
2 10074 100.0000 216.0000 0000000   0.0000  36.0000 12.77881384    13
CTC1_L_00227019-04
1 10075U 23726ZA  26075.70032407  .00000000  00000+0  00000-0 0  9995
2 10075 100.0000 216.0000 0000000   0.0000 126.0000 12.77881384    14
CTC1_L_00227020-01
1 10076U 26931QT  26075.70032407  .00000000  00000+0  00000-0 0  9997
2 10076 100.0000 228.0000 0000000   0.0000 228.0000 12.77881384    11
CTC1_L_00227020-02
1 10077U 22692TI  26075.70032407  .00000000  00000+0  00000-0 0  9998
2 10077 100.0000 228.0000 0000000   0.0000 318.0000 12.77881384    12
CTC1_L_00227020-03
1 10078U 24658IR  26075.70032407  .00000000  00000+0  00000-0 0  9993
2 10078 100.0000 228.0000 0000000   0.0000  48.0000 12.77881384    13
CTC1_L_00227020-04
1 10079U 26528WF  26075.70032407  .00000000  00000+0  00000-0 0  9992
2 10079 100.0000 228.0000 0000000   0.0000 138.0000 12.77881384    14
CTC1_L_00227021-01
1 10080U 26866EU  26075.70032407  .00000000  00000+0  00000-0 0  9999
2 10080 100.0000 240.0000 0000000   0.0000 240.0000 12.77881384    14
CTC1_L_00227021-02
1 10081U 24279RC  26075.70032407  .00000000  00000+0  00000-0 0  9996
2 10081 100.0000 240.0000 0000000   0.0000 330.0000 12.77881384    15
CTC1_L_00227021-03
1 10082U 24880QV  26075.70032407  .00000000  00000+0  00000-0 0  9995
2 10082 100.0000 240.0000 0000000   0.0000  60.0000 12.77881384    16
CTC1_L_00227021-04
1 10083U 23843BX  26075.70032407  .00000000  00000+0  00000-0 0  9994
2 10083 100.0000 240.0000 0000000   0.0000 150.0000 12.77881384    17
CTC1_L_00227022-01
1 10084U 22507DS  26075.70032407  .00000000  00000+0  00000-0 0  9991
2 10084 100.0000 252.0000 0000000   0.0000 252.0000 12.77881384    14
CTC1_L_00227022-02
1 10085U 26087OA  26075.70032407  .00000000  00000+0  00000-0 0  9999
2 10085 100.0000 252.0000 0000000   0.0000 342.0000 12.77881384    15
CTC1_L_00227022-03
1 10086U 25753ND  26075.70032407  .00000000  00000+0  00000-0 0  9999
2 10086 100.0000 252.0000 0000000   0.0000  72.0000 12.77881384    16
CTC1_L_00227022-04
1 10087U 25937ZA  26075.70032407  .00000000  00000+0  00000-0 0  9994
2 10087 100.0000 252.0000 0000000   0.0000 162.0000 12.77881384    17
CTC1_L_00227023-01
1 10088U 22386RO  26075.70032407  .00000000  00000+0  00000-0 0  9990
2 10088 100.0000 264.0000 0000000   0.0000 264.0000 12.77881384    14
CTC1_L_00227023-02
1 10089U 23977RF  26075.70032407  .00000000  00000+0  00000-0 0  9998
2 10089 100.0000 264.0000 0000000   0.0000 354.0000 12.77881384    15
CTC1_L_00227023-03
1 10090U 24800SU  26075.70032407  .00000000  00000+0  00000-0 0  9996
2 10090 100.0000 264.0000 0000000   0.0000  84.0000 12.77881384    17
CTC1_L_00227023-04
1 10091U 23081C   26075.70032407  .00000000  00000+0  00000-0 0  9997
2 10091 100.0000 264.0000 0000000   0.0000 174.0000 12.77881384    18
CTC1_L_00227024-01
1 10092U 23995QX  26075.70032407  .00000000  00000+0  00000-0 0  9992
2 10092 100.0000 276.0000 0000000   0.0000 276.0000 12.77881384    15
CTC1_L_00227024-02
1 10093U 23407IT  26075.70032407  .00000000  00000+0  00000-0 0  9991
2 10093 100.0000 276.0000 0000000   0.0000   6.0000 12.77881384    17
CTC1_L_00227024-03
1 10094U 26577Z   26075.70032407  .00000000  00000+0  00000-0 0  9993
2 10094 100.0000 276.0000 0000000   0.0000  96.0000 12.77881384    17
CTC1_L_00227024-04
1 10095U 26832QR  26075.70032407  .00000000  00000+0  00000-0 0  9998
2 10095 100.0000 276.0000 0000000   0.0000 186.0000 12.77881384    18
CTC1_L_00227025-01
1 10096U 24421TQ  26075.70032407  .00000000  00000+0  00000-0 0  9991
2 10096 100.0000 288.0000 0000000   0.0000 288.0000 12.77881384    15
CTC1_L_00227025-02
1 10097U 25185LK  26075.70032407  .00000000  00000+0  00000-0 0  9990
2 10097 100.0000 288.0000 0000000   0.0000  18.0000 12.77881384    17
CTC1_L_00227025-03
1 10098U 22383S   26075.70032407  .00000000  00000+0  00000-0 0  9998
2 10098 100.0000 288.0000 0000000   0.0000 108.0000 12.77881384    18
CTC1_L_00227025-04
1 10099U 22258SG  26075.70032407  .00000000  00000+0  00000-0 0  9990
2 10099 100.0000 288.0000 0000000   0.0000 198.0000 12.77881384    18
CTC1_L_00227026-01
1 10100U 24449ZG  26075.70032407  .00000000  00000+0  00000-0 0  9997
2 10100 100.0000 300.0000 0000000   0.0000 300.0000 12.77881384    11
CTC1_L_00227026-02
1 10101U 25044IW  26075.70032407  .00000000  00000+0  00000-0 0  9990
2 10101 100.0000 300.0000 0000000   0.0000  30.0000 12.77881384    12
CTC1_L_00227026-03
1 10102U 24699IL  26075.70032407  .00000000  00000+0  00000-0 0  9996
2 10102 100.0000 300.0000 0000000   0.0000 120.0000 12.77881384    13
CTC1_L_00227026-04
1 10103U 26717VI  26075.70032407  .00000000  00000+0  00000-0 0  9990
2 10103 100.0000 300.0000 0000000   0.0000 210.0000 12.77881384    14
CTC1_L_00227027-01
1 10104U 24152DT  26075.70032407  .00000000  00000+0  00000-0 0  9992
2 10104 100.0000 312.0000 0000000   0.0000 312.0000 12.77881384    11
CTC1_L_00227027-02
1 10105U 22904FU  26075.70032407  .00000000  00000+0  00000-0 0  9996
2 10105 100.0000 312.0000 0000000   0.0000  42.0000 12.77881384    12
CTC1_L_00227027-03
1 10106U 23436C   26075.70032407  .00000000  00000+0  00000-0 0  9998
2 10106 100.0000 312.0000 0000000   0.0000 132.0000 12.77881384    13
CTC1_L_00227027-04
1 10107U 26378YN  26075.70032407  .00000000  00000+0  00000-0 0  9997
2 10107 100.0000 312.0000 0000000   0.0000 222.0000 12.77881384    14
CTC1_L_00227028-01
1 10108U 24890JP  26075.70032407  .00000000  00000+0  00000-0 0  9995
2 10108 100.0000 324.0000 0000000   0.0000 324.0000 12.77881384    11
CTC1_L_00227028-02
1 10109U 24985XW  26075.70032407  .00000000  00000+0  00000-0 0  9991
2 10109 100.0000 324.0000 0000000   0.0000  54.0000 12.77881384    12
CTC1_L_00227028-03
1 10110U 26271CE  26075.70032407  .00000000  00000+0  00000-0 0  9993
2 10110 100.0000 324.0000 0000000   0.0000 144.0000 12.77881384    14
CTC1_L_00227028-04
1 10111U 23561NZ  26075.70032407  .00000000  00000+0  00000-0 0  9993
2 10111 100.0000 324.0000 0000000   0.0000 234.0000 12.77881384    15
CTC1_L_00227029-01
1 10112U 23721BU  26075.70032407  .00000000  00000+0  00000-0 0  9992
2 10112 100.0000 336.0000 0000000   0.0000 336.0000 12.77881384    12
CTC1_L_00227029-02
1 10113U 23004CX  26075.70032407  .00000000  00000+0  00000-0 0  9997
2 10113 100.0000 336.0000 0000000   0.0000  66.0000 12.77881384    13
CTC1_L_00227029-03
1 10114U 23165VM  26075.70032407  .00000000  00000+0  00000-0 0  9996
2 10114 100.0000 336.0000 0000000   0.0000 156.0000 12.77881384    14
CTC1_L_00227029-04
1 10115U 23618SC  26075.70032407  .00000000  00000+0  00000-0 0  9990
2 10115 100.0000 336.0000 0000000   0.0000 246.0000 12.77881384    15
CTC1_L_00227030-01
1 10116U 26988EC  26075.70032407  .00000000  00000+0  00000-0 0  9994
2 10116 100.0000 348.0000 0000000   0.0000 348.0000 12.77881384    12
CTC1_L_00227030-02
1 10117U 25579FT  26075.70032407  .00000000  00000+0  00000-0 0  9990
2 10117 100.0000 348.0000 0000000   0.0000  78.0000 12.77881384    13
CTC1_L_00227030-03
1 10118U 23782TR  26075.70032407  .00000000  00000+0  00000-0 0  9995
2 10118 100.0000 348.0000 0000000   0.0000 168.0000 12.77881384    14
CTC1_L_00227030-04
1 10119U 26786CA  26075.70032407  .00000000  00000+0  00000-0 0  9993
2 10119 100.0000 348.0000 0000000   0.0000 258.0000 12.77881384    15
